#cP2016 12 25  0  0  0.00000000      96 ORBIT IGb08 HLM  IGS
## 1929      0.00000000   900.00000000 57747 0.0000000000000
+   32   G01G02G03G04G05G06G07G08G09G10G11G12G13G14G15G16G17
+        G18G19G20G21G22G23G24G25G26G27G28G29G30G31G32  0  0
+          0  0  0  0  0  0  0  0  0  0  0  0  0  0  0  0  0
+          0  0  0  0  0  0  0  0  0  0  0  0  0  0  0  0  0
+          0  0  0  0  0  0  0  0  0  0  0  0  0  0  0  0  0
++         2  2  2  4  2  2  2  2  2  2  2  2  2  2  2  2  2
++         2  2  2  2  2  2  2  2  2  2  2  2  2  2  2  0  0
++         0  0  0  0  0  0  0  0  0  0  0  0  0  0  0  0  0
++         0  0  0  0  0  0  0  0  0  0  0  0  0  0  0  0  0
++         0  0  0  0  0  0  0  0  0  0  0  0  0  0  0  0  0
%c G  cc GPS ccc cccc cccc cccc cccc ccccc ccccc ccccc ccccc
%c cc cc ccc ccc cccc cccc cccc cccc ccccc ccccc ccccc ccccc
%f  1.2500000  1.025000000  0.00000000000  0.000000000000000
%f  0.0000000  0.000000000  0.00000000000  0.000000000000000
%i    0    0    0    0      0      0      0      0         0
%i    0    0    0    0      0      0      0      0         0
/* FINAL ORBIT COMBINATION FROM WEIGHTED AVERAGE OF:        
/* cod emr esa gfz grg jpl mit ngs sio                      
/* REFERENCED TO IGS TIME (IGST) AND TO WEIGHTED MEAN POLE: 
/* PCV:IGS08_1930 OL/AL:FES2004  NONE     Y  ORB:CMB CLK:CMB
*  2016 12 25  1 30  0.00000000
PG01  -6219.758181 -14204.305291 -21692.261144     44.697799  8  7  7 113       
PG02 -16821.022752  14406.251890  14864.837620    505.011813  8  7  5 122       
PG03 -11194.883678 -22730.012069  -7995.897824   -103.889023  7  5  6 115       
PG04   3263.523238 -16202.177670 -21158.269910 999999.999999
PG05  -5668.498053  16022.549826  20276.655693    -70.174038  7  7  4 127       
PG06 -25267.462437   7031.814874   4206.406736    290.347088  8  6  5 112       
PG07 -20634.087158  -7843.827569  15230.969322    399.004861  7  5  7 124       
PG08   3697.605200 -25102.200198  -7678.658938    -43.615424  5  8  7  99       
PG09 -11605.691981 -11411.729847  20961.380709    270.191399  6  6  4 130       
PG10  19324.072662   3899.618822 -17831.792433   -115.631636  7  4  2 115       
PG11   -874.250812 -18063.370153 -20027.666984   -670.156976  8  6  6 123       
PG12   9160.286213  23256.105633  -9429.369972    389.275498  6  7  5 102       
PG13 -12265.601753  23593.976032    -55.799834    -61.695137  9  6  5 115       
PG14  17233.104730 -15004.203009 -13148.315415    -51.056037  8  9  7 115       
PG15  -1496.852782  25131.209286  -8009.063922   -338.485821  8  8  6 106       
PG16   6466.859952 -14755.172836  20920.244743     20.635619  7  6  7 116       
PG17 -16909.505132   7120.155371 -18784.503583   -196.187390  9 10  5 104       
PG18  20836.003962  13949.200513  -8536.707744    586.643223  9  7  7  88       
PG19 -17896.074077  13179.524503 -15025.889430   -517.346999 10  9  7 112       
PG20  10929.469580  21968.226938   9994.341019    452.333881  4  7  5  97       
PG21  23355.418040   4887.464745  12620.821305   -527.713490  8  4  6 117       
PG22  -6789.387701 -22185.123011 -12612.312844    152.154675  8  5  7 116       
PG23  -3075.101129 -21867.484904  14645.982864   -200.734669  8  8  4 110       
PG24   3220.536983  15203.829595 -21610.052244    -28.056147  6  5  6  99       
PG25  18071.194436  19400.741215   2784.873097   -305.750366  4  8  4  55       
PG26  14118.531196  -6597.325963  21522.187906   -513.375741  6  5  3 118       
PG27  12380.593230 -22797.199062   5169.928428    184.096899  4  7  8 103       
PG28 -18754.493792  -8587.235292 -16102.239033    576.912735  8 11  5 124       
PG29   8565.111492  14534.612900  20524.828134    636.937395  6  7  5 120       
PG30 -26205.741536   -827.579084   4616.033890    159.581644  9  6 10 155       
PG31  25205.106271  -7090.827172   5652.290024    229.094054  6  7  8 117       
PG32  16940.560268  -6205.315603 -19475.360381   -254.354908  7  6  4 107       
*  2016 12 25  1 45  0.00000000
PG01  -3793.592802 -14667.698943 -21921.811763     44.698858  8  6  7 115       
PG02 -18357.042741  14524.999957  12670.048136    505.006294  9  8  5 131       
PG03 -10322.982700 -22081.188496 -10573.444194   -103.890194  7  5  6 109       
PG04   5529.403639 -16614.218650 -20315.310473 999999.999999
PG05  -7325.815444  14298.101174  21035.728050    -70.172124  7  8  3 132       
PG06 -25624.253441   6858.888490   1363.436264    290.351550  7  6  5 112       
PG07 -18873.320574  -8283.037949  17143.677939    399.001653  6  4  6 120       
PG08   4155.271932 -25718.036349  -4932.712618    -43.615870  5  7  7 112       
PG09 -10773.297591 -13616.761586  20071.013584    270.198097  5  6  4 129       
PG10  20479.550614   5463.427659 -16052.245221   -115.631017  7  4  2 114       
PG11   1009.068463 -19109.004515 -18997.688318   -670.154751  7  5  5 124       
PG12   8322.727770  22392.166141 -11971.136509    389.275508  7  7  5 107       
PG13 -12393.443881  23343.056064   2809.944319    -61.696766  9  6  6 117       
PG14  16754.020787 -13387.561669 -15308.043910    -51.057410  8  8  6 105       
PG15  -2035.325549  25769.312643  -5338.471981   -338.486973  9  9  5 110       
PG16   7985.326590 -12817.885201  21689.642032     20.636872  7  6  8 115       
PG17 -16158.590144   4949.461432 -20089.322940   -196.186782  9 10  5 112       
PG18  21208.121692  14825.075997  -5935.397460    586.646080  9  7  7  97       
PG19 -17269.890684  11512.951228 -17003.638731   -517.346176 10  9  7 120       
PG20   9775.569976  21282.104016  12358.425468    452.335604  4  7  4 100       
PG21  21985.375695   5422.397612  14793.446459   -527.712325  8  4  5 117       
PG22  -5476.550471 -21206.531514 -14726.597263    152.144782  8  5  7 124       
PG23  -2338.731698 -23240.642683  12432.480552   -200.735607  8  8  4 112       
PG24    819.674384  15713.449295 -21448.237591    -28.056261  6  5  6 104       
PG25  18035.483805  19652.399985    -86.622787   -305.756566  4  8  4  64       
PG26  15687.833167  -4746.296309  20920.740161   -513.378132  5  5  3 114       
PG27  12347.600908 -22008.805340   7929.551044    184.101871  5  6  8 105       
PG28 -19718.961463 -10138.632904 -13994.171279    576.915486  7 11  5 123       
PG29   7623.567670  16603.934316  19291.413676    636.935398  6  7  5 122       
PG30 -25562.453816  -1178.437752   7333.212016    159.582046  9  6 10 150       
PG31  25701.513141  -6970.587848   2857.029591    229.091858  6  7  8 115       
PG32  16300.976947  -3999.663178 -20570.218082   -254.368866  7  6  4 108       
*  2016 12 25  2  0  0.00000000
PG01  -1388.535203 -15261.501857 -21777.857053     44.699923  8  6  6 124       
PG02 -19642.151987  14642.995729  10258.644797    505.000329  9  8  6 125       
PG03  -9222.293382 -21276.911977 -12969.206887   -103.891343  7  4  6 115       
PG04   7666.907835 -17109.129475 -19132.825354 999999.999999
PG05  -9111.262298  12612.550198  21429.098484    -70.170290  7  8  3 126       
PG06 -25676.551313   6624.176572  -1502.998329    290.356024  7  7  5  89       
PG07 -16944.413590  -8861.586935  18769.472479    398.998532  6  4  5 133       
PG08   4496.450494 -26051.535870  -2101.421419    -43.616795  5  7  7  96       
PG09 -10086.006112 -15745.103011  18834.458317    270.204792  6  6  3 112       
PG10  21562.651185   6809.780509 -13997.322718   -115.630397  7  3  2 118       
PG11   2742.302706 -20159.863947 -17655.253616   -670.152442  7  4  5 115       
PG12   7256.204633  21370.746162 -14310.556749    389.275314  7  8  5 118       
PG13 -12413.580559  22800.834830   5627.406821    -61.698559  9  6  6 116       
PG14  16279.711847 -11529.613312 -17197.951405    -51.059281  7  8  5 127       
PG15  -2481.126580  26130.527255  -2574.287959   -338.488029  9  9  5 104       
PG16   9650.556786 -10920.854176  22080.282670     20.638106  7  6  8 103       
PG17 -15484.807373   2618.130598 -21036.187467   -196.185770  8 10  4 115       
PG18  21405.541694  15471.513775  -3231.736858    586.648618  8  7  6 106       
PG19 -16663.145199   9622.453481 -18697.537438   -517.345419  9  9  7 118       
PG20   8396.222873  20484.006947  14507.890987    452.337451  3  7  4 103       
PG21  20429.837216   6084.491971  16725.012827   -527.711366  8  5  5 115       
PG22  -3956.246988 -20133.003324 -16582.599430    152.134721  8  5  7 124       
PG23  -1737.919724 -24396.660675  10002.624576   -200.736433  8  9  5  86       
PG24  -1517.514245  16332.602764 -20919.061343    -28.057004  5  5  6 107       
PG25  17788.388143  19672.837906  -2956.659566   -305.762782  5  8  5  88       
PG26  17288.499229  -3042.406997  19959.972080   -513.380562  4  5  3 110       
PG27  12275.444211 -20924.280613  10551.028623    184.106833  5  6  8  99       
PG28 -20601.992183 -11430.695550 -11635.745468    576.917856  7 10  5 108       
PG29   6848.955056  18571.733542  17726.406863    636.933620  6  7  5 114       
PG30 -24643.449490  -1616.869944   9925.013622    159.582457  9  5 10 153       
PG31  25895.064025  -6808.531021     13.813953    229.089518  5  7  9 113       
PG32  15748.811344  -1663.897755 -21310.677871   -254.382841  6  6  4 116       
EOF
